{
  "type": "FeatureCollection",
  "features": [
    {
      "type": "Feature",
      "properties": {
        "norad_id": 29994,
        "name": "FENGYUN 1C DEB",
        "group": "fengyun-1c-debris",
        "lat": 42.36028782201855,
        "lon": -158.81097705416565,
        "alt_km": 886.3193463382604,
        "timestamp": "2025-12-06T14:35:37.399110+00:00",
        "meta_object_name": "FENGYUN 1C DEB",
        "meta_object_id": "1999-025LU",
        "meta_epoch": "2025-12-06T00:30:49.460256",
        "meta_mean_motion": 14.02637616,
        "meta_eccentricity": 0.01295182,
        "meta_inclination": 98.8301,
        "meta_ra_of_asc_node": 12.4715,
        "meta_arg_of_pericenter": 232.4586,
        "meta_mean_anomaly": 185.2215,
        "meta_ephemeris_type": 0,
        "meta_classification_type": "U",
        "meta_norad_cat_id": 29994,
        "meta_element_set_no": 999,
        "meta_rev_at_epoch": 96632,
        "meta_bstar": 0.00039575804,
        "meta_mean_motion_dot": 6.14e-06,
        "meta_mean_motion_ddot": 0,
        "tle_line1": "1 29994U 99025LU  25340.02140579  .00000614  00000+0  39576-3 0  9993",
        "tle_line2": "2 29994  98.8301  12.4715 0129518 232.4586 185.2215 14.02637616966326"
      },
      "geometry": {
        "type": "Point",
        "coordinates": [
          -158.81097705416565,
          42.36028782201855
        ]
      }
    },
    {
      "type": "Feature",
      "properties": {
        "norad_id": 29996,
        "name": "FENGYUN 1C DEB",
        "group": "fengyun-1c-debris",
        "lat": 8.147907013694635,
        "lon": -160.86934911318696,
        "alt_km": 824.3442160263048,
        "timestamp": "2025-12-06T14:35:37.399130+00:00",
        "meta_object_name": "FENGYUN 1C DEB",
        "meta_object_id": "1999-025LW",
        "meta_epoch": "2025-12-06T01:59:41.039232",
        "meta_mean_motion": 14.09357834,
        "meta_eccentricity": 0.01321065,
        "meta_inclination": 99.3036,
        "meta_ra_of_asc_node": 17.2437,
        "meta_arg_of_pericenter": 106.4338,
        "meta_mean_anomaly": 281.7921,
        "meta_ephemeris_type": 0,
        "meta_classification_type": "U",
        "meta_norad_cat_id": 29996,
        "meta_element_set_no": 999,
        "meta_rev_at_epoch": 96043,
        "meta_bstar": 0.0026477031,
        "meta_mean_motion_dot": 4.961e-05,
        "meta_mean_motion_ddot": 0,
        "tle_line1": "1 29996U 99025LW  25340.08311388  .00004961  00000+0  26477-2 0  9993",
        "tle_line2": "2 29996  99.3036  17.2437 0132106 106.4338 281.7921 14.09357834960435"
      },
      "geometry": {
        "type": "Point",
        "coordinates": [
          -160.86934911318696,
          8.147907013694635
        ]
      }
    },
    {
      "type": "Feature",
      "properties": {
        "norad_id": 29997,
        "name": "FENGYUN 1C DEB",
        "group": "fengyun-1c-debris",
        "lat": 12.046765323229415,
        "lon": -10.68599438224797,
        "alt_km": 840.2897008976679,
        "timestamp": "2025-12-06T14:35:37.399142+00:00",
        "meta_object_name": "FENGYUN 1C DEB",
        "meta_object_id": "1999-025LX",
        "meta_epoch": "2025-12-06T07:45:23.699808",
        "meta_mean_motion": 14.00855663,
        "meta_eccentricity": 0.00803348,
        "meta_inclination": 98.8808,
        "meta_ra_of_asc_node": 350.9492,
        "meta_arg_of_pericenter": 345.2217,
        "meta_mean_anomaly": 30.7713,
        "meta_ephemeris_type": 0,
        "meta_classification_type": "U",
        "meta_norad_cat_id": 29997,
        "meta_element_set_no": 999,
        "meta_rev_at_epoch": 96300,
        "meta_bstar": 0.0013069674,
        "meta_mean_motion_dot": 1.965e-05,
        "meta_mean_motion_ddot": 0,
        "tle_line1": "1 29997U 99025LX  25340.32319097  .00001965  00000+0  13070-2 0  9992",
        "tle_line2": "2 29997  98.8808 350.9492 0080334 345.2217  30.7713 14.00855663963000"
      },
      "geometry": {
        "type": "Point",
        "coordinates": [
          -10.68599438224797,
          12.046765323229415
        ]
      }
    },
    {
      "type": "Feature",
      "properties": {
        "norad_id": 29998,
        "name": "FENGYUN 1C DEB",
        "group": "fengyun-1c-debris",
        "lat": 12.159248863889752,
        "lon": 38.5763437016258,
        "alt_km": 795.8549262552833,
        "timestamp": "2025-12-06T14:35:37.399152+00:00",
        "meta_object_name": "FENGYUN 1C DEB",
        "meta_object_id": "1999-025LY",
        "meta_epoch": "2025-12-06T02:46:08.851008",
        "meta_mean_motion": 14.2850231,
        "meta_eccentricity": 0.00046345,
        "meta_inclination": 99.3067,
        "meta_ra_of_asc_node": 40.0761,
        "meta_arg_of_pericenter": 322.2944,
        "meta_mean_anomaly": 37.791,
        "meta_ephemeris_type": 0,
        "meta_classification_type": "U",
        "meta_norad_cat_id": 29998,
        "meta_element_set_no": 999,
        "meta_rev_at_epoch": 97780,
        "meta_bstar": 0.0015149528,
        "meta_mean_motion_dot": 3.748e-05,
        "meta_mean_motion_ddot": 0,
        "tle_line1": "1 29998U 99025LY  25340.11538022  .00003748  00000+0  15150-2 0  9993",
        "tle_line2": "2 29998  99.3067  40.0761 0004634 322.2944  37.7910 14.28502310977808"
      },
      "geometry": {
        "type": "Point",
        "coordinates": [
          38.5763437016258,
          12.159248863889752
        ]
      }
    },
    {
      "type": "Feature",
      "properties": {
        "norad_id": 29999,
        "name": "FENGYUN 1C DEB",
        "group": "fengyun-1c-debris",
        "lat": -44.62362377365855,
        "lon": -26.378107003749392,
        "alt_km": 966.1014350672895,
        "timestamp": "2025-12-06T14:35:37.399162+00:00",
        "meta_object_name": "FENGYUN 1C DEB",
        "meta_object_id": "1999-025LZ",
        "meta_epoch": "2025-12-06T04:43:27.203232",
        "meta_mean_motion": 14.20120636,
        "meta_eccentricity": 0.01893212,
        "meta_inclination": 98.5758,
        "meta_ra_of_asc_node": 324.6581,
        "meta_arg_of_pericenter": 145.4264,
        "meta_mean_anomaly": 227.8419,
        "meta_ephemeris_type": 0,
        "meta_classification_type": "U",
        "meta_norad_cat_id": 29999,
        "meta_element_set_no": 999,
        "meta_rev_at_epoch": 97631,
        "meta_bstar": 0.00042087667,
        "meta_mean_motion_dot": 1.031e-05,
        "meta_mean_motion_ddot": 0,
        "tle_line1": "1 29999U 99025LZ  25340.19684263  .00001031  00000+0  42088-3 0  9995",
        "tle_line2": "2 29999  98.5758 324.6581 0189321 145.4264 227.8419 14.20120636976315"
      },
      "geometry": {
        "type": "Point",
        "coordinates": [
          -26.378107003749392,
          -44.62362377365855
        ]
      }
    },
    {
      "type": "Feature",
      "properties": {
        "norad_id": 30001,
        "name": "FENGYUN 1C DEB",
        "group": "fengyun-1c-debris",
        "lat": -36.694739557641576,
        "lon": -131.36284793833363,
        "alt_km": 774.9499777717829,
        "timestamp": "2025-12-06T14:35:37.399173+00:00",
        "meta_object_name": "FENGYUN 1C DEB",
        "meta_object_id": "1999-025MA",
        "meta_epoch": "2025-12-06T03:42:50.431104",
        "meta_mean_motion": 14.38420366,
        "meta_eccentricity": 0.00387672,
        "meta_inclination": 98.9603,
        "meta_ra_of_asc_node": 54.9168,
        "meta_arg_of_pericenter": 117.9142,
        "meta_mean_anomaly": 272.659,
        "meta_ephemeris_type": 0,
        "meta_classification_type": "U",
        "meta_norad_cat_id": 30001,
        "meta_element_set_no": 999,
        "meta_rev_at_epoch": 97337,
        "meta_bstar": 0.0043117667,
        "meta_mean_motion_dot": 0.00013246,
        "meta_mean_motion_ddot": 0,
        "tle_line1": "1 30001U 99025MA  25340.15475036  .00013246  00000+0  43118-2 0  9998",
        "tle_line2": "2 30001  98.9603  54.9168 0038767 117.9142 272.6590 14.38420366973377"
      },
      "geometry": {
        "type": "Point",
        "coordinates": [
          -131.36284793833363,
          -36.694739557641576
        ]
      }
    },
    {
      "type": "Feature",
      "properties": {
        "norad_id": 30003,
        "name": "FENGYUN 1C DEB",
        "group": "fengyun-1c-debris",
        "lat": 68.59861536855122,
        "lon": 160.78906735875879,
        "alt_km": 843.4529473612947,
        "timestamp": "2025-12-06T14:35:37.399183+00:00",
        "meta_object_name": "FENGYUN 1C DEB",
        "meta_object_id": "1999-025MC",
        "meta_epoch": "2025-12-05T22:47:49.231968",
        "meta_mean_motion": 13.85616798,
        "meta_eccentricity": 0.01431862,
        "meta_inclination": 99.576,
        "meta_ra_of_asc_node": 314.6033,
        "meta_arg_of_pericenter": 137.8014,
        "meta_mean_anomaly": 290.6395,
        "meta_ephemeris_type": 0,
        "meta_classification_type": "U",
        "meta_norad_cat_id": 30003,
        "meta_element_set_no": 999,
        "meta_rev_at_epoch": 95394,
        "meta_bstar": 0.00038512198,
        "meta_mean_motion_dot": 4.31e-06,
        "meta_mean_motion_ddot": 0,
        "tle_line1": "1 30003U 99025MC  25339.94987537  .00000431  00000+0  38512-3 0  9994",
        "tle_line2": "2 30003  99.5760 314.6033 0143186 137.8014 290.6395 13.85616798953949"
      },
      "geometry": {
        "type": "Point",
        "coordinates": [
          160.78906735875879,
          68.59861536855122
        ]
      }
    }
  ]
}